SWISSCUBE               
1 35932U 09051B   24339.44350908  .00003399  00000+0  71287-3 0  9992
2 35932  98.4480 226.0678 0007459 142.2137 217.9588 14.60338393807390
BEESAT-1                
1 35933U 09051C   24339.62527490  .00002759  00000+0  58624-3 0  9994
2 35933  98.4408 226.9213 0005663 151.2334 208.9179 14.59899491807484
ITUPSAT1                
1 35935U 09051E   24339.62924702  .00002609  00000+0  56872-3 0  9990
2 35935  98.4508 226.6083 0007709 162.7032 197.4430 14.58766239807107
XIWANG-1 (HOPE-1)       
1 36122U 09072B   24339.58155068 -.00000013  00000+0  81174-4 0  9990
2 36122 100.3218 293.5506 0008099  74.1706 286.0300 13.16414537719373
JCSAT-12 (JCSAT-RA)     
1 35755U 09044A   24339.54458721 -.00000306  00000+0  00000+0 0  9997
2 35755   0.0633  95.3496 0000450  30.9312 275.6751  1.00271004 55998
OPTUS D3                
1 35756U 09044B   24339.54768160 -.00000126  00000+0  00000+0 0  9999
2 35756   0.4473  85.5596 0003854 192.5867 148.8826  1.00270808 55948
NIMIQ 5                 
1 35873U 09050A   24339.50392712 -.00000235  00000+0  00000+0 0  9999
2 35873   0.0333  76.6387 0003095 183.5571 282.3455  1.00270074 55731
OCEANSAT-2              
1 35931U 09051A   24339.58577619  .00000263  00000+0  20590-3 0  9994
2 35931  98.2431  11.7097 0016497  21.8365 338.3501 13.99531636801050
AMAZONAS 2              
1 35942U 09054A   24339.57760184 -.00000261  00000+0  00000+0 0  9998
2 35942   0.3616  92.4576 0004341 161.9187 326.6462  1.00268899 55573
COMSATBW-1              
1 35943U 09054B   24339.53094697  .00000044  00000+0  00000+0 0  9992
2 35943   0.0328  30.4820 0003542 231.3342  66.2296  1.00277865 55689
WORLDVIEW-2 (WV-2)      
1 35946U 09055A   24339.52360883  .00000535  00000+0  19498-3 0  9998
2 35946  98.4905  49.8199 0005235  88.8104 271.3682 14.37031504795242
DMSP 5D-3 F18 (USA 210) 
1 35951U 09057A   24339.55355796  .00000651  00000+0  36264-3 0  9995
2 35951  98.8370 312.8254 0012009  45.2229 314.9918 14.14410154780466
NSS-12                  
1 36032U 09058A   24339.52973065  .00000093  00000+0  00000+0 0  9994
2 36032   0.0447  62.3557 0003664 188.0848  71.1117  1.00270838 55305
THOR 6                  
1 36033U 09058B   24339.59061514  .00000012  00000+0  00000+0 0  9990
2 36033   0.0291  99.8114 0001561 144.7748  41.1071  1.00270791 55392
SMOS                    
1 36036U 09059A   24339.53641828  .00000975  00000+0  32490-3 0  9990
2 36036  98.4388 164.0131 0001225  83.5510 276.5818 14.39761882792923
PROBA-2                 
1 36037U 09059B   24339.58869618  .00001039  00000+0  25549-3 0  9994
2 36037  98.2305 160.2276 0012697 204.5895 155.4698 14.54281242800177
SJ-11-01                
1 36088U 09061A   24339.61482052  .00002023  00000+0  40768-3 0  9994
2 36088  97.9526 327.8312 0011014 355.0184 123.0078 14.62505731802661
COSMOS 2455             
1 36095U 09063A   24339.58010156  .00000029  00000+0  75107-4 0  9992
2 36095  67.1461 173.7794 0006066 240.6477 119.4002 13.96962479766963
INTELSAT 14 (IS-14)     
1 36097U 09064A   24339.36606630 -.00000251  00000+0  00000+0 0  9992
2 36097   0.0186 306.8202 0002430 314.4376 259.2232  1.00271227 54994
EUTELSAT 36B            
1 36101U 09065A   24339.59975639  .00000133  00000+0  00000+0 0  9990
2 36101   0.0661 345.3132 0004982 283.3123  71.7001  1.00272660 55091
INTELSAT 15 (IS-15)     
1 36106U 09067A   24339.15327117 -.00000163  00000+0  00000+0 0  9995
2 36106   0.0172 339.7109 0002029 270.6588 323.4565  1.00271012 35616
WGS F3 (USA 211)        
1 36108U 09068A   24339.41115729  .00000074  00000+0  00000+0 0  9991
2 36108   0.1898  89.5946 0000124 123.4716 188.4826  1.00270471 40988
YAOGAN-7                
1 36110U 09069A   24339.57813728  .00001860  00000+0  27071-3 0  9991
2 36110  98.0786 215.7594 0026185  43.4427 316.8839 14.76879084806994
COSMOS 2456 [GLONASS-M] 
1 36111U 09070A   24339.60238681  .00000023  00000+0  00000+0 0  9996
2 36111  64.6961  90.1119 0002494 297.7950 141.5018  2.13103553116501
COSMOS 2457 [GLONASS-M] 
1 36112U 09070B   24339.35008418  .00000021  00000+0  00000+0 0  9990
2 36112  64.6808  89.9755 0005490 157.5151 220.7904  2.13101000116508
YAOGAN-8                
1 36121U 09072A   24339.63872915  .00000304  00000+0  10693-2 0  9990
2 36121 100.2756 241.0694 0021298 141.1559 219.1083 13.05048943715688
DIRECTV 12              
1 36131U 09075A   24339.49801924 -.00000081  00000+0  00000+0 0  9991
2 36131   0.0109  82.9850 0000184 230.0494 197.3586  1.00271307 40940
BEIDOU-2 G1             
1 36287U 10001A   24339.54632483 -.00000261  00000+0  00000+0 0  9992
2 36287   2.9939  59.8212 0004669 263.2674  87.8461  1.00268111 54555
RADUGA-1M 2             
1 36358U 10002A   24339.53529101 -.00000163  00000+0  00000+0 0  9994
2 36358   2.1591  86.1414 0004075 176.1303  89.2985  1.00272881 44475
SDO                     
1 36395U 10005A   24339.35511934 -.00000060  00000+0  00000+0 0  9999
2 36395  33.4781  94.9422 0002023 185.6463 179.1932  1.00271228 54457
INTELSAT 16 (IS-16)     
1 36397U 10006A   24339.50323208 -.00000222  00000+0  00000+0 0  9994
2 36397   0.0106 352.1152 0001987 253.7017 292.9666  1.00270044 54047
