OBJECT_NAME,OBJECT_ID,EPOCH,MEAN_MOTION,ECCENTRICITY,INCLINATION,RA_OF_ASC_NODE,ARG_OF_PERICENTER,MEAN_ANOMALY,EPHEMERIS_TYPE,CLASSIFICATION_TYPE,NORAD_CAT_ID,ELEMENT_SET_NO,REV_AT_EPOCH,BSTAR,MEAN_MOTION_DOT,MEAN_MOTION_DDOT
JCSAT-12 (JCSAT-RA),2009-044A,2024-12-04T13:04:12.334944,1.00271004,.000045,0.0633,95.3496,30.9312,275.6751,0,U,35755,999,5599,0,-.306E-5,0
OPTUS D3,2009-044B,2024-12-04T13:08:39.690240,1.00270808,.0003854,0.4473,85.5596,192.5867,148.8826,0,U,35756,999,5594,0,-.126E-5,0
NIMIQ 5,2009-050A,2024-12-04T12:05:39.303168,1.00270074,.0003095,0.0333,76.6387,183.5571,282.3455,0,U,35873,999,5573,0,-.235E-5,0
OCEANSAT-2,2009-051A,2024-12-04T14:03:31.062816,13.99531636,.0016497,98.2431,11.7097,21.8365,338.3501,0,U,35931,999,80105,.2059E-3,.263E-5,0
SWISSCUBE,2009-051B,2024-12-04T10:38:39.184512,14.60338393,.0007459,98.4480,226.0678,142.2137,217.9588,0,U,35932,999,80739,.71287E-3,.3399E-4,0
BEESAT-1,2009-051C,2024-12-04T15:00:23.751360,14.59899491,.0005663,98.4408,226.9213,151.2334,208.9179,0,U,35933,999,80748,.58624E-3,.2759E-4,0
ITUPSAT1,2009-051E,2024-12-04T15:06:06.942528,14.58766239,.0007709,98.4508,226.6083,162.7032,197.4430,0,U,35935,999,80710,.56872E-3,.2609E-4,0
AMAZONAS 2,2009-054A,2024-12-04T13:51:44.798976,1.00268899,.0004341,0.3616,92.4576,161.9187,326.6462,0,U,35942,999,5557,0,-.261E-5,0
COMSATBW-1,2009-054B,2024-12-04T12:44:33.818208,1.00277865,.0003542,0.0328,30.4820,231.3342,66.2296,0,U,35943,999,5568,0,.44E-6,0
WORLDVIEW-2 (WV-2),2009-055A,2024-12-04T12:33:59.802912,14.37031504,.0005235,98.4905,49.8199,88.8104,271.3682,0,U,35946,999,79524,.19498E-3,.535E-5,0
DMSP 5D-3 F18 (USA 210),2009-057A,2024-12-04T13:17:07.407744,14.14410154,.0012009,98.8370,312.8254,45.2229,314.9918,0,U,35951,999,78046,.36264E-3,.651E-5,0
NSS-12,2009-058A,2024-12-04T12:42:48.728160,1.00270838,.0003664,0.0447,62.3557,188.0848,71.1117,0,U,36032,999,5530,0,.93E-6,0
THOR 6,2009-058B,2024-12-04T14:10:29.148096,1.00270791,.0001561,0.0291,99.8114,144.7748,41.1071,0,U,36033,999,5539,0,.12E-6,0
SMOS,2009-059A,2024-12-04T12:52:26.539392,14.39761882,.0001225,98.4388,164.0131,83.5510,276.5818,0,U,36036,999,79292,.3249E-3,.975E-5,0
PROBA-2,2009-059B,2024-12-04T14:07:43.349952,14.54281242,.0012697,98.2305,160.2276,204.5895,155.4698,0,U,36037,999,80017,.25549E-3,.1039E-4,0
SJ-11-01,2009-061A,2024-12-04T14:45:20.492928,14.62505731,.0011014,97.9526,327.8312,355.0184,123.0078,0,U,36088,999,80266,.40768E-3,.2023E-4,0
COSMOS 2455,2009-063A,2024-12-04T13:55:20.774784,13.96962479,.0006066,67.1461,173.7794,240.6477,119.4002,0,U,36095,999,76696,.75107E-4,.29E-6,0
INTELSAT 14 (IS-14),2009-064A,2024-12-04T08:47:08.128320,1.00271227,.000243,0.0186,306.8202,314.4376,259.2232,0,U,36097,999,5499,0,-.251E-5,0
EUTELSAT 36B,2009-065A,2024-12-04T14:23:38.952096,1.00272660,.0004982,0.0661,345.3132,283.3123,71.7001,0,U,36101,999,5509,0,.133E-5,0
INTELSAT 15 (IS-15),2009-067A,2024-12-04T03:40:42.629088,1.00271012,.0002029,0.0172,339.7109,270.6588,323.4565,0,U,36106,999,3561,0,-.163E-5,0
WGS F3 (USA 211),2009-068A,2024-12-04T09:52:03.989856,1.00270471,.0000124,0.1898,89.5946,123.4716,188.4826,0,U,36108,999,4098,0,.74E-6,0
YAOGAN-7,2009-069A,2024-12-04T13:52:31.060992,14.76879084,.0026185,98.0786,215.7594,43.4427,316.8839,0,U,36110,999,80699,.27071E-3,.186E-4,0
COSMOS 2456 [GLONASS-M],2009-070A,2024-12-04T14:27:26.220384,2.13103553,.0002494,64.6961,90.1119,297.7950,141.5018,0,U,36111,999,11650,0,.23E-6,0
COSMOS 2457 [GLONASS-M],2009-070B,2024-12-04T08:24:07.273152,2.13101000,.000549,64.6808,89.9755,157.5151,220.7904,0,U,36112,999,11650,0,.21E-6,0
YAOGAN-8,2009-072A,2024-12-04T15:19:46.198560,13.05048943,.0021298,100.2756,241.0694,141.1559,219.1083,0,U,36121,999,71568,.10693E-2,.304E-5,0
XIWANG-1 (HOPE-1),2009-072B,2024-12-04T13:57:25.978752,13.16414537,.0008099,100.3218,293.5506,74.1706,286.0300,0,U,36122,999,71937,.81174E-4,-.13E-6,0
DIRECTV 12,2009-075A,2024-12-04T11:57:08.862336,1.00271307,.0000184,0.0109,82.9850,230.0494,197.3586,0,U,36131,999,4094,0,-.81E-6,0
BEIDOU-2 G1,2010-001A,2024-12-04T13:06:42.465312,1.00268111,.0004669,2.9939,59.8212,263.2674,87.8461,0,U,36287,999,5455,0,-.261E-5,0
RADUGA-1M 2,2010-002A,2024-12-04T12:50:49.143264,1.00272881,.0004075,2.1591,86.1414,176.1303,89.2985,0,U,36358,999,4447,0,-.163E-5,0
SDO,2010-005A,2024-12-04T08:31:22.310976,1.00271228,.0002023,33.4781,94.9422,185.6463,179.1932,0,U,36395,999,5445,0,-.6E-6,0
INTELSAT 16 (IS-16),2010-006A,2024-12-04T12:04:39.251712,1.00270044,.0001987,0.0106,352.1152,253.7017,292.9666,0,U,36397,999,5404,0,-.222E-5,0
